Plz;Ort;Longitude;Latitude
9913;"Abfaltersbach";46.7603;12.5419
6067;"Absam";47.3;11.5
3462;"Absdorf";48.3167;15.6167
5441;"Abtenau";47.55;13.35
5122;"Ach";47.5178;9.865
2481;"Achau";48.0667;16.3833
6215;"Achenkirch";47.5167;11.7
4541;"Adlwang";47.9833;14.2167
8911;"Admont";47.5667;14.45
5421;"Adnet";47.6833;13.1333
8623;"Aflenz Kurort";47.5333;15.2333
9542;"Afritz";46.7269;13.8075
3642;"Aggsbach Dorf";48.2833;15.4167
3641;"Aggsbach Markt";48.2833;15.4
8943;"Aigen im Ennstal";47.5167;14.1333
4160;"Aigen im Mühlkreis";48.6333;13.9667
9951;"Ainet";46.8661;12.7014
4676;"Aistersheim";48.1833;13.75
4211;"Alberndorf in der Riedmark";48.4;14.4167
6861;"Alberschwende";47.45;9.81667
6071;"Aldrans";47.25;11.45
4072;"Alkoven";48.2833;14.1
2534;"Alland";48.05;16.0833
3804;"Allentsteig";48.6833;15.3167
8412;"Allerheiligen bei Wildon";46.9142;15.5544
8643;"Allerheiligen im Mürztal";47.4667;15.4
4511;"Allhaming";48.15;14.1667
6236;"Alpbach";47.3833;11.9333
8671;"Alpl";46.9931;14.4447
6844;"Altach";47.35;9.65
8992;"Altaussee";47.6333;13.7667
4203;"Altenberg bei Linz";48.3667;14.3333
4121;"Altenfelden";48.4833;13.9667
4674;"Altenhof am Hausruck";48.1333;13.6833
5541;"Altenmarkt im Pongau";47.3833;13.4167
3474;"Altenwörth";48.3833;15.85
3033;"Altlengbach";48.15;15.9167
2144;"Altlichtenwarth";48.6333;16.8
4813;"Altmünster";47.9;13.75
4721;"Altschwendt";48.3333;13.6833
2141;"Ameis";48.6667;16.5333
7163;"Andau";47.7667;17.0333
6866;"Andelsbuch";47.4167;9.88333
4754;"Andrichsfurt";48.25;13.5167
5081;"Anif";47.75;13.0667
5524;"Annaberg";47.5167;13.4333
4052;"Ansfelden";47.965;13.0494
5102;"Anthering";47.8833;13.0167
4980;"Antiesenhofen";48.35;13.4
7143;"Apetlon";47.75;16.8333
3925;"Arbesbach";48.4833;14.95
4341;"Arbing";48.05;13.4667
3321;"Ardagger";48.1667;14.8167
8904;"Ardning";47.5833;14.35
8454;"Arnfels";46.6764;15.4031
9601;"Arnoldstein";46.5461;13.71
4122;"Arnreit";48.5333;14
9543;"Arriach";46.7319;13.8519
3661;"Artstetten";48.2333;15.2
6471;"Arzl im Pitztal";47.2;10.7667
4082;"Aschach an der Donau";48.3667;14.0333
4421;"Aschach an der Steyr";48;14.3333
3361;"Aschbach Markt";48.0667;14.75
2870;"Aspang";47.55;16.0833
2151;"Asparn an der Zaya";48.5833;16.5
3041;"Asperhofen";48.2333;15.9167
4864;"Attersee";47.8667;13.55
4800;"Attnang-Puchheim";48.0083;13.7167
3452;"Atzenbrugg";48.2833;15.9
2214;"Auersthal";48.3667;16.6333
4971;"Aurolzmünster";48.25;13.45
9931;"Außervillgraten";46.7875;12.4314
6094;"Axams";47.2333;11.3
4672;"Bachmanning";48.1167;13.8
8990;"Bad Aussee";47.6;13.7833
2405;"Bad Deutsch Altenburg";48.1333;16.9
9135;"Bad Eisenkappel";46.4864;14.5961
2721;"Bad Fischau";47.8333;16.1667
8524;"Bad Gams";46.8711;15.2247
8344;"Bad Gleichenberg";46.8756;15.9086
4822;"Bad Goisern";47.6333;13.6167
4540;"Bad Hall";48.0333;14.2
5630;"Bad Hofgastein";47.1667;13.1
4820;"Bad Ischl";47.7167;13.6167
4829;"Bad Ischl";47.7167;13.6167
9546;"Bad Kleinkirchheim";46.8228;13.7922
2222;"Bad Pirawarth";48.4519;16.5983
8490;"Bad Radkersburg";46.6881;15.9881
4701;"Bad Schallerbach";48.2333;13.9167
2853;"Bad Schönau";47.4833;16.2333
7431;"Bad Tatzmannsdorf";47.3333;16.2167
2540;"Bad Vöslau";47.9667;16.2
4654;"Bad Wimsbach-Neydharting";48.0667;13.9
9805;"Baldramsdorf";46.8011;13.4533
8572;"Bärnbach";46.9833;16.05
4342;"Baumgartenberg";48.2;14.7333
6121;"Baumkirchen";47.3;11.5667
4441;"Behamberg";48.0167;14.4833
5165;"Berndorf bei Salzburg";47.9833;13.0667
2275;"Bernhardsthal";48.6833;16.8667
6622;"Berwang";47.4;10.75
6870;"Bezau";47.385;9.90167
6633;"Biberwier";47.3833;10.9
6621;"Bichlbach";47.4167;10.7833
2362;"Biedermannsdorf";48.0833;16.3333
8190;"Birkfeld";47.35;15.6833
9652;"Birnbaum";46.6847;12.8886
2102;"Bisamberg";48.3167;16.35
8731;"Bischoffeld";47.2667;14.7
5500;"Bischofshofen";47.4167;13.2167
3232;"Bischofstetten";48.1167;15.4667
6874;"Bizau";47.3689;9.92333
9150;"Bleiburg";46.59;14.7989
3372;"Blindenmarkt";48.1333;14.9833
6700;"Bludenz";47.1497;9.81667
6719;"Bludesch";47.2;9.73306
8283;"Blumau in Steiermark";47.1167;16.05
2213;"Bockfließ";48.36;16.6039
5645;"Böckstein";46.8556;12.5289
3071;"Böheimkirchen";48.2;15.7667
5733;"Bramberg am Wildkogel";47.2723;12.3387
6234;"Brandenberg";47.4833;11.8833
5280;"Braunau am Inn";48.2667;13.0333
5283;"Braunau am Inn";48.2667;13.0333
5289;"Braunau am Inn";48.2667;13.0333
6751;"Braz";47.15;9.9
6900;"Bregenz";47.5;9.76667
4075;"Breitenaich";48.25;13.9667
6252;"Breitenbach am Inn";47.4833;11.9667
8313;"Breitenfeld an der Rittschein";47.0333;15.95
2384;"Breitenfurt bei Wien";48.1333;16.1167
2385;"Breitenfurt bei Wien";48.1333;16.1167
4691;"Breitenschützing";48.0833;13.7833
2673;"Breitenstein am Semmering";47.6667;15.8167
2014;"Breitenwaida";48.5;16.0667
6364;"Brixen im Thale";47.45;12.25
6230;"Brixlegg";47.4167;11.8833
5671;"Bruck an der Großglocknerstraße";47.2833;12.8167
8251;"Bruck an der Lafnitz";47.45;15.9167
2460;"Bruck an der Leitha";48.0167;16.7667
8600;"Bruck an der Mur";47.4167;15.2833
8601;"Bruck an der Mur";47.4167;15.2833
9371;"Brückl";46.7517;14.5367
2345;"Brunn am Gebirge";48.1;16.2833
3595;"Brunn an der Wild";48.6833;15.5167
8274;"Buch bei Hartberg";47.2333;16
4611;"Buchkirchen";48.2333;14.0167
8291;"Burgau";47.1333;16.0833
5111;"Bürmoos";47.9833;12.9333
6706;"Bürs";47.1497;9.8
4411;"Christkindl";48.0333;14.3833
6752;"Dalaas";47.1167;9.98333
6884;"Damüls";47.2833;9.88333
8241;"Dechantskirchen";47.4167;16.0167
9772;"Dellach im Drautal";46.7375;13.0783
4693;"Desselbrunn";48.0167;13.7667
8483;"Deutsch Goritz";46.7508;15.8294
2423;"Deutsch Jahrndorf";48.0167;17.1
7572;"Deutsch Kaltenbrunn";47.0833;16.1
8121;"Deutschfeistritz";47.1833;15.3333
7301;"Deutschkreutz";47.6;16.6333
8530;"Deutschlandsberg";46.8153;15.2222
5652;"Dienten am Hochkönig";47.3667;13
3813;"Dietmanns";48.4667;15.15
9103;"Diex";46.75;14.6
4371;"Dimbach";48.3;14.8833
2181;"Dobermannsdorf";48.6;16.8167
3843;"Dobersberg";46.9231;14.3981
8143;"Dobl";46.95;15.3667
9873;"Döbriach";46.7833;13.6603
9991;"Dölsach";46.8283;12.8453
8953;"Donnersbach";47.4614;14.1297
7082;"Donnerskirchen";47.9;16.6333
6933;"Doren";47.4928;9.87972
4751;"Dorf an der Pram";48.2833;13.6167
5632;"Dorfgastein";47.25;13.1
4392;"Dorfstetten";48.3167;14.9667
6850;"Dornbirn";47.4167;9.73306
2165;"Drasenhofen";48.75;16.65
2265;"Drösing";48.5333;16.9
2263;"Dürnkrut";48.4833;16.85
6341;"Ebbs";47.6333;12.2167
5531;"Eben im Pongau";47.4;13.4
5323;"Ebenau";47.8;13.1833
9565;"Ebene Reichenau";46.85;13.9164
2490;"Ebenfurth";47.8667;16.3667
4802;"Ebensee";47.8;13.7667
7521;"Eberau";47.1;16.4667
2435;"Ebergassing";48.0333;16.5167
9141;"Eberndorf";46.5914;14.6436
4906;"Eberschwang";48.15;13.5667
9372;"Eberstein";46.8081;14.56
2483;"Ebreichsdorf";47.95;16.4
3903;"Echsenbach";48.7167;15.2167
2305;"Eckartsau";48.1333;16.8
8332;"Edelsbach bei Feldbach";46.9894;15.8369
8583;"Edelschrott";47.0167;15.05
4070;"Eferding";48.3167;14.0167
5142;"Eggelsberg";48.0833;13
3730;"Eggenburg";48.6333;15.8167
2031;"Eggendorf im Thale";48.5667;16.1667
4622;"Eggendorf im Traunkreis";48.1167;14.1333
4773;"Eggerding";48.1333;13.7333
3861;"Eggern";48.9;15.1333
8063;"Eggersdorf bei Graz";47.1167;15.5833
8461;"Ehrenhausen";46.7242;15.5867
6632;"Ehrwald";47.4;10.9167
8552;"Eibiswald";46.6867;15.2472
8790;"Eisenerz";47.5333;14.8833
7000;"Eisenstadt";47.85;16.5167
9861;"Eisentratten";46.9225;13.5675
3862;"Eisgarn";48.9;15.1
9421;"Eitweg";46.7667;14.8833
6652;"Elbigenalp";47.3;10.4333
5161;"Elixhausen";47.8667;13.0667
6352;"Ellmau";47.35;13.2667
6644;"Elmen";47.3333;10.5333
7562;"Eltendorf";47;16.2
3644;"Emmersdorf an der Donau";48.2333;15.3333
2292;"Engelhartstetten";48.1667;16.8833
4090;"Engelhartszell";48.5167;13.7333
4470;"Enns";48.2;14.4667
4761;"Enzenkirchen";48.3833;13.65
2032;"Enzersdorf im Thale";48.5833;16.2333
6343;"Erl";47.6833;12.1833
3253;"Erlauf";48.1833;15.1833
2115;"Ernstbrunn";48.5333;16.35
6383;"Erpfendorf";47.5833;12.4667
4092;"Esternberg";48.5331;13.6
3492;"Etsdorf am Kamp";48.4333;15.7333
5301;"Eugendorf";47.8667;13.1167
3324;"Euratsfeld";48.0667;14.9167
9583;"Faak am See";46.5681;13.9097
5324;"Faistenau";47.7667;13.2333
8350;"Fehring";46.94;16.0081
2873;"Feistritz am Wechsel";47.6;16.05
9710;"Feistritz an der Drau";46.6925;13.6897
9613;"Feistritz an der Gail";46.5775;13.6067
9181;"Feistritz im Rosental";46.5167;14.1667
9544;"Feld am See";46.7764;13.7478
8330;"Feldbach";46.9531;15.8883
6800;"Feldkirch";47.2331;9.6
6803;"Feldkirch";47.2331;9.6
4101;"Feldkirchen an der Donau";48.35;14.05
8073;"Feldkirchen bei Graz";47.0167;15.45
5143;"Feldkirchen bei Mattighofen";48.0667;13.05
9560;"Feldkirchen in Kärnten";46.7167;14.1
2603;"Felixdorf";47.8833;16.2333
3481;"Fels am Wagram";48.4333;15.8167
9170;"Ferlach";46.5269;14.3019
3325;"Ferschnitz";48.0833;15
3483;"Feuersbrunn";48.4333;15.7833
6391;"Fieberbrunn";47.4833;12.55
5532;"Filzmoos";47.4333;13.5167
6292;"Finkenberg";47.15;11.8333
9584;"Finkenstein";46.55;13.9
8654;"Fischbach";47.0667;10.9667
6533;"Fiss";47.05;10.6167
5542;"Flachau";47.3333;13.4
9831;"Flattach";46.9386;13.1344
6403;"Flaurling";47.2833;11.1167
6572;"Flirsch";47.15;10.4
8183;"Floing";47.2667;15.75
8753;"Fohnsdorf";47.2;14.6833
7212;"Forchtenstein";47.7;16.3333
4892;"Fornach";48.0333;13.4333
3213;"Frankenfels";47.9667;15.3167
4890;"Frankenmarkt";47.9833;13.4167
5131;"Franking";48.05;12.9167
3594;"Franzen";48.6167;15.3833
6820;"Frastanz";47.2167;9.63306
2132;"Frättingsdorf";48.6333;16.5167
7132;"Frauenkirchen";47.8333;16.9167
3183;"Freiland";46.8333;15.1333
8694;"Frein an der Mürz";47.75;15.4833
9712;"Fresach";46.7156;13.6908
8441;"Fresing";46.7586;15.4475
8240;"Friedberg";47.4333;16.05
5211;"Friedburg";48.0167;13.25
3533;"Friedersbach";48.5833;15.2667
6122;"Fritzens";47.3;11.5833
8130;"Frohnleiten";47.2667;15.3167
8841;"Frojach";47.1308;14.3086
6263;"Fügen";47.35;11.85
6166;"Fulpmes";47.1667;11.35
9586;"Fürnitz";46.5569;13.8211
8280;"Fürstenfeld";47.05;16.0833
5330;"Fuschl am See";47.8;13.3
6972;"Fußach";47.4831;9.66667
3003;"Gablitz";48.2167;16.15
3334;"Gaflenz";47.8833;14.7167
2541;"Gainfarn";47.95;16.2
6974;"Gaißau";47.4667;9.6
9132;"Gallizien";46.55;14.5167
4210;"Gallneukirchen";48.35;14.4167
4713;"Gallspach";48.2;13.8167
6563;"Galtür";46.9667;10.1833
3292;"Gaming";46.8167;14.4167
8462;"Gamlitz";46.7203;15.5533
4851;"Gampern";47.9833;13.55
8922;"Gams bei Hieflau";47.6667;14.7833
3122;"Gansbach";48.3;15.4667
2230;"Gänserndorf";48.35;16.7333
6787;"Gargellen";46.9667;9.93333
3571;"Gars am Kamp";48.5833;15.65
4451;"Garsten";47.7167;14.3333
6793;"Gaschurn";46.9833;10.0333
8616;"Gasen";47.3833;15.5667
4673;"Gaspoltshofen";48.1333;13.7667
3852;"Gastern";48.8833;15.2167
2474;"Gattendorf";48.0167;16.9833
2191;"Gaweinstal";48.4667;16.5833
4682;"Geboltskirchen";48.15;13.6333
3494;"Gedersdorf";48.4333;15.6833
4922;"Geiersberg";47.9731;13.0342
4943;"Geinberg";48.2667;13.3
8153;"Geistthal";47.1667;15.1667
2093;"Geras";48.7833;15.6667
2201;"Gerasdorf bei Wien";48.2831;16.4667
7542;"Gerersdorf bei Güssing";47.0667;16.25
5132;"Geretsberg";48.0833;12.9333
6281;"Gerlos";47.2167;12
3542;"Gföhl";48.5167;15.4833
5133;"Gilgenberg am Weilhart";48.1333;12.9333
6295;"Ginzling";47.1;11.8
9555;"Glanegg";46.7136;14.2064
3704;"Glaubendorf";48.5;15.9333
8443;"Gleinstätten";46.7536;15.3697
8200;"Gleisdorf";47.1;15.7167
9142;"Globasnitz";46.5569;14.7028
9346;"Glödnitz";46.8667;14.1167
2640;"Gloggnitz";47.6667;15.9333
4810;"Gmunden";47.85;13.95
4819;"Gmunden";47.85;13.95
2152;"Gnadendorf";48.6167;16.4
8342;"Gnas";46.8731;15.8253
9563;"Gnesau";46.7667;13.9667
9585;"Gödersdorf";46.5717;13.8517
6811;"Göfis";47.2331;9.63306
2013;"Göllersdorf";48.4833;16.1167
5440;"Golling an der Salzach";47.6;13.1667
8635;"Gollrad";47.65;15.3
3800;"Göpfritz an der Wild";48.7167;15.4
4824;"Gosau";47.5667;13.5167
8482;"Gosdorf";46.7278;15.7925
3345;"Göstling an der Ybbs";47.8;14.9167
2464;"Göttlesbrunn";48.05;16.7333
2434;"Götzendorf an der Leitha";48.0133;16.5803
6091;"Götzens";47.2333;11.3167
6840;"Götzis";47.3331;9.63306
9362;"Grades";46.9667;14.25
8232;"Grafendorf bei Hartberg";47.35;16
9131;"Grafenstein";46.6;14.4667
3484;"Grafenwörth";48.4;15.7833
3524;"Grainbrunn";48.4833;15.2667
4201;"Gramastetten";48.3833;14.2167
2440;"Gramatneusiedl";48.0167;16.4833
6673;"Grän";47.5;10.55
8101;"Gratkorn";47.1333;15.35
8112;"Gratwein";47.1167;15.3167
8010;"Graz";47.0667;15.45
8012;"Graz";47.0667;15.45
8013;"Graz";47.0667;15.45
8015;"Graz";47.0667;15.45
8016;"Graz";47.0667;15.45
8017;"Graz";47.0667;15.45
8018;"Graz";47.0667;15.45
8019;"Graz";47.0667;15.45
8020;"Graz";47.0667;15.45
8022;"Graz";47.0667;15.45
8023;"Graz";47.0667;15.45
8024;"Graz";47.0667;15.45
8025;"Graz";47.0667;15.45
8026;"Graz";47.0667;15.45
8027;"Graz";47.0667;15.45
8028;"Graz";47.0667;15.45
8029;"Graz";47.0667;15.45
8035;"Graz";47.0667;15.45
8036;"Graz";47.0667;15.45
8056;"Graz";47.0667;15.45
9761;"Greifenburg";46.7558;13.1778
4360;"Grein";48.2167;14.85
3264;"Gresten";47.9833;15.0167
6156;"Gries am Brenner";47.05;11.4833
6182;"Gries im Sellrain";47.2;11.15
4710;"Grieskirchen";48.2333;13.8333
9112;"Griffen";46.7044;14.7328
2840;"Grimmenstein";47.6167;16.1333
6591;"Grins";47.15;10.5167
8962;"Gröbming";47.4333;13.9
5082;"Grödig";47.7333;13.0333
2301;"Groß-Enzersdorf";48.2028;16.5508
2034;"Großharras";48.6639;16.2456
8452;"Großklein";46.7361;15.4444
2143;"Großkrut";48.6439;16.7236
8734;"Großlobming";47.1833;14.8
3711;"Großmeiseldorf";48.5306;15.8794
2002;"Großmugl";48.4992;16.2306
3471;"Großriedenthal";48.4833;15.8667
2114;"Großrußbach";48.4667;16.4167
3701;"Großweikersdorf";48.4667;15.9833
4645;"Grünau im Almtal";47.85;13.95
2733;"Grünbach am Schneeberg";47.7833;15.9833
8993;"Grundlsee";47.6167;13.8167
8913;"Gstatterboden";47.6;14.6333
9722;"Gummern";46.6567;13.78
2352;"Gumpoldskirchen";48.05;16.2833
2525;"Günselsdorf";47.9333;16.2667
4623;"Gunskirchen";48.1333;13.95
2042;"Guntersdorf";48.65;16.05
2353;"Guntramsdorf";48.0333;16.3
2354;"Guntramsdorf";48.0333;16.3
9342;"Gurk";46.6064;14.5236
4942;"Gurten";48.25;13.3333
7540;"Güssing";47.0667;16.3333
4293;"Gutau";48.4;14.6
9334;"Guttaring";46.8833;14.5
4680;"Haag am Hausruck";48.1833;13.6333
3493;"Hadersdorf am Kamp";48.45;15.7167
2061;"Hadres";48.7;16.1167
4232;"Hagenberg im Mühlkreis";48.3667;14.5167
4785;"Haibach bei Schärding";48.5667;13.5
4083;"Haibach ob der Donau";48.4;13.9167
4431;"Haidershofen";48.0667;14.45
9111;"Haimburg";46.695;14.6725
2410;"Hainburg an der Donau";48.15;16.9333
8264;"Hainersdorf";47.1167;15.9333
3485;"Haitzendorf";48.4333;15.7333
8492;"Halbenrain";46.7219;15.9467
7131;"Halbturn";47.8667;16.9667
6050;"Hall in Tirol";47.2833;11.5167
6060;"Hall in Tirol";47.2833;11.5167
5400;"Hallein";47.6833;13.1
5409;"Hallein";47.6833;13.1
4830;"Hallstatt";47.55;13.65
5144;"Handenberg";48.1333;13
7473;"Hannersdorf";47.2333;16.3833
2082;"Hardegg";46.6667;15.3667
4483;"Hargelsberg";48.15;14.4167
2286;"Haringsee";48.1833;16.7833
8230;"Hartberg";47.2849;15.9745
6651;"Häselgehr";47.3167;10.5
4170;"Haslach an der Mühl";48.5833;14.0333
8361;"Hatzendorf";46.9811;15.9956
2054;"Haugsdorf";48.7;16.0667
2145;"Hausbrunn";48.6167;16.8167
2184;"Hauskirchen";48.6;16.7667
3464;"Hausleiten";48.0667;14.4333
8071;"Hausmannstätten";46.9911;15.5114
3860;"Heidenreichstein";48.8667;15.1167
8172;"Heilbrunn";47.3333;15.6167
9844;"Heiligenblut";47.0333;12.8333
8081;"Heiligenkreuz am Waasen";46.9558;15.5881
7561;"Heiligenkreuz im Lafnitztal";46.9892;16.2608
8451;"Heimschuh";46.75;15.4833
6611;"Heiterwang";47.45;10.75
4184;"Helfenberg";48.5333;14.1333
4202;"Hellmonsödt";48.4333;14.3
8411;"Hengsberg";46.8667;15.4333
5302;"Henndorf am Wallersee";47.9;13.1833
9620;"Hermagor";46.6272;13.3672
2171;"Herrnbaumgarten";48.6833;16.6833
3130;"Herzogenburg";48.2667;15.6833
4175;"Herzogsdorf";48.4333;14.1167
8920;"Hieflau";47.6;14.7333
9562;"Himmelberg";46.7567;14.0306
2371;"Hinterbrühl";48.0833;16.2333
5754;"Hinterglemm";47.3667;12.5667
3413;"Hintersdorf";48.3;16.2167
4573;"Hinterstoder";47.6833;14.15
6294;"Hintertux";47.1167;11.6833
6283;"Hippach";47.2;11.8667
8221;"Hirnsdorf";47.1833;15.8167
4242;"Hirschbach im Mühlkreis";48.4833;14.4167
8584;"Hirschegg";47.0167;14.9167
2552;"Hirtenberg";47.9167;16.1833
6952;"Hittisau";47.45;9.95
8151;"Hitzendorf";47.0333;15.3
6395;"Hochfilzen";47.4667;12.6167
2852;"Hochneukirchen";47.45;16.2
6452;"Hochsölden";46.9833;10.9667
2802;"Hochwolkersdorf";47.65;16.2833
2451;"Hof am Leithagebirge";47.95;16.5833
5322;"Hof bei Salzburg";47.8167;13.2167
4716;"Hofkirchen an der Trattnach";48.2167;13.7333
4142;"Hofkirchen im Mühlkreis";48.4833;13.8
4492;"Hofkirchen im Traunkreis";48.1333;14.3667
3421;"Höflein an der Donau";48.35;16.2667
2273;"Hohenau an der March";48.6;16.9
6845;"Hohenems";47.3667;9.68306
2223;"Hohenruppersdorf";48.45;16.65
8785;"Hohentauern";47.4333;14.4833
6914;"Hohenweiler";47.5833;9.78333
4921;"Hohenzell";48.1833;13.5333
5251;"Höhnhart";48.1667;13.2667
2020;"Hollabrunn";47.6167;16.0833
3343;"Hollenstein an der Ybbs";47.8;14.7667
2812;"Hollenthon";47.5833;16.25
5731;"Hollersbach im Pinzgau";47.2667;12.4167
6654;"Holzgau";47.2642;10.1989
6361;"Hopfgarten im Brixental";47.45;12.1667
9961;"Hopfgarten in Defereggen";46.9192;12.5364
6912;"Hörbranz";47.55;9.75
7312;"Horitschon";47.5833;16.55
4063;"Hörsching";48.2333;14.1833
3383;"Hürm";48.15;15.4
5511;"Hüttau";47.4167;13.3
9375;"Hüttenberg";46.9414;14.55
5612;"Hüttschlag";47.1667;13.2333
3544;"Idolsberg";48.5833;15.4833
7142;"Illmitz";47.75;16.8
8262;"Ilz";47.05;16
6460;"Imst";47.2333;10.7333
3052;"Innermanzing";48.1333;15.9
9932;"Innervillgraten";46.8119;12.3747
6010;"Innsbruck";47.2667;11.4
6012;"Innsbruck";47.2667;11.4
6013;"Innsbruck";47.2667;11.4
6014;"Innsbruck";47.2667;11.4
6020;"Innsbruck";47.2667;11.4
6022;"Innsbruck";47.2667;11.4
6023;"Innsbruck";47.2667;11.4
6024;"Innsbruck";47.2667;11.4
6025;"Innsbruck";47.2667;11.4
6026;"Innsbruck";47.2667;11.4
6027;"Innsbruck";47.2667;11.4
6029;"Innsbruck";47.2667;11.4
6401;"Inzing";47.2833;11.1833
8952;"Irdning";47.5;14.0833
3754;"Irnfritz";48.7333;15.55
9773;"Irschen";46.7569;13.0253
6561;"Ischgl";47.0167;10.2833
3923;"Jagenbach";48.6333;15.0333
8091;"Jagerberg";46.8536;15.7381
3763;"Japons";48.7833;15.5667
2264;"Jedenspeigen";48.5;16.8667
6200;"Jenbach";47.4;11.7833
9631;"Jenig";46.6167;13.25
8380;"Jennersdorf";46.9392;16.1467
6474;"Jerzens";47.15;10.7333
2053;"Jetzelsdorf";48.7;16.05
6373;"Jochberg";47.3;12.4167
7093;"Jois";47.95;16.7833
3441;"Judenau";48.2833;16
8750;"Judenburg";47.1667;14.6667
8573;"Kainach bei Voitsberg";47.1333;15.0833
7342;"Kaisersdorf";47.5333;16.4
8401;"Kalsdorf bei Graz";46.9653;15.4803
2391;"Kaltenleutgeben";48.1167;16.1833
8775;"Kalwang";47.4167;14.75
4862;"Kammer am Attersee";47.95;13.6
8773;"Kammern im Liesingtal";47.3833;14.9
2033;"Kammersdorf";48.6167;16.2333
8605;"Kapfenberg";47.4333;15.3
8607;"Kapfenberg";47.4333;15.3
8353;"Kapfenstein";46.8861;15.9717
9321;"Kappel am Krappfeld";46.8386;14.4864
6555;"Kappl";47.0667;10.3833
5710;"Kaprun";47.2667;12.7667
3121;"Karlstetten";48.25;15.5667
3973;"Karlstift";48.5833;14.75
2113;"Karnabrunn";48.45;16.3667
9941;"Kartitsch";46.7289;12.5008
3072;"Kasten bei Böheimkirchen";48.15;15.7833
8842;"Katsch an der Mur";47.1333;14.2833
4223;"Katsdorf";47.0422;14.4756
2572;"Kaumberg";48.0167;15.8833
3851;"Kautzen";48.9167;15.2333
4292;"Kefermarkt";48.4333;14.5333
4633;"Kematen am Innbach";48.1667;13.8667
4531;"Kematen an der Krems";48.1;14.1833
6175;"Kematen in Tirol";47.25;11.2667
3373;"Kemmelbach";48.15;15.0833
6921;"Kennelbach";47.4831;9.76667
3195;"Kernhof";47.7;14.2667
2192;"Kettlasbrunn";48.55;16.65
9074;"Keutschach";46.5931;14.1889
3412;"Kierling";48.3;16.2667
3233;"Kilb";48.1;15.4
8650;"Kindberg";47.5;15.45
8082;"Kirchbach in Steiermark";46.9317;15.6619
3470;"Kirchberg am Wagram";48.4333;15.8833
3932;"Kirchberg am Walde";47.35;15.9833
2880;"Kirchberg am Wechsel";47.6;15.9833
3204;"Kirchberg an der Pielach";48.0167;15.4333
8324;"Kirchberg an der Raab";46.9858;15.7669
3811;"Kirchberg an der Wild";48.75;15.4
5232;"Kirchberg bei Mattighofen";48.0333;13.1
6365;"Kirchberg in Tirol";47.45;12.3167
6322;"Kirchbichl";47.5167;12.0833
4560;"Kirchdorf an der Krems";47.9;14.1167
6382;"Kirchdorf in Tirol";47.5667;12.45
4932;"Kirchheim im Innkreis";48.2;13.3833
2860;"Kirchschlag in der Buckligen Welt";47.5;16.2833
3241;"Kirnberg an der Mank";48.0667;15.3167
2421;"Kittsee";48.0833;17.0667
6370;"Kitzbühel";47.45;12.3833
8442;"Kitzeck im Sausal";46.7667;15.4333
9010;"Klagenfurt";46.6247;14.3053
9013;"Klagenfurt";46.6247;14.3053
9020;"Klagenfurt";46.6247;14.3053
9022;"Klagenfurt";46.6247;14.3053
9023;"Klagenfurt";46.6247;14.3053
9024;"Klagenfurt";46.6247;14.3053
9025;"Klagenfurt";46.6247;14.3053
9026;"Klagenfurt";46.6247;14.3053
9027;"Klagenfurt";46.6247;14.3053
9028;"Klagenfurt";46.6247;14.3053
9029;"Klagenfurt";46.6247;14.3053
4564;"Klaus an der Pyhrnbahn";47.8167;14.15
5603;"Kleinarl";47.2833;13.3167
9345;"Kleinglödnitz";46.85;14.1333
2431;"Kleinneusiedl";48.0833;16.6
3660;"Kleinpöchlarn";48.2167;15.2167
4442;"Kleinraming";48;14.4833
4464;"Kleinreifling";47.8167;14.6333
4115;"Kleinzell im Mühlkreis";48.45;13.9833
7013;"Klingenbach";47.75;16.55
8493;"Klöch";46.7647;15.9656
6754;"Klösterle";46.7264;13.9183
3400;"Klosterneuburg";48.3;16.3167
3402;"Klosterneuburg";48.3;16.3167
3403;"Klosterneuburg";48.3;16.3167
9376;"Knappenberg";46.9344;14.5722
8720;"Knittelfeld";47.2167;14.8167
8722;"Knittelfeld";47.2167;14.8167
7332;"Kobersdorf";47.6;16.4
6842;"Koblach";47.3331;9.6
8580;"Köflach";46.85;13.8667
8191;"Koglhof";47.3167;15.6833
7512;"Kohfidisch";47.1667;16.35
9815;"Kolbnitz";46.8667;13.3167
4154;"Kollerschlag";48.6;13.8333
6114;"Kolsass";47.2833;11.6333
3433;"Königstetten";48.3;16.1333
4280;"Königswiesen";48.4;14.8333
4794;"Kopfing im Innkreis";48.4333;13.65
5321;"Koppl";47.8;13.1667
2100;"Korneuburg";48.35;16.3333
6345;"Kössen";47.6667;12.4
9231;"Köstenberg";46.65;14.0167
3623;"Kottes";48.4167;15.3
2542;"Kottingbrunn";47.95;16.2167
9071;"Köttmannsdorf";46.5614;14.2339
9311;"Kraig";46.8131;14.3686
8854;"Krakaudorf";47.1667;14.0167
6233;"Kramsach";47.45;11.8667
8714;"Kraubath an der Mur";47.3;14.9333
3500;"Krems an der Donau";48.4167;15.6
9862;"Kremsbrücke";46.9472;13.6275
4550;"Kremsmünster";48.05;14.1333
4631;"Krenglbach";48.2;13.95
7031;"Krensdorf";47.7833;16.4167
8670;"Krieglach";47.5333;15.55
5743;"Krimml";47.2167;12.1833
3420;"Kritzendorf";48.3333;16.3
4484;"Kronstorf";48.1333;14.45
3543;"Krumau am Kamp";48.5833;15.4333
9201;"Krumpendorf";46.6333;14.2167
2671;"Küb";47.6833;15.8667
5431;"Kuchl";47.6167;13.15
6330;"Kufstein";47.45;13.7667
6332;"Kufstein";47.45;13.7667
6333;"Kufstein";47.45;13.7667
9125;"Kühnsdorf";46.6219;14.6364
6183;"Kühtai";47.2167;11
7543;"Kukmirn";47.0667;16.2167
8062;"Kumberg";47.15;15.5333
6250;"Kundl";47.4667;11.9833
2136;"Laa an der Thaya";48.7167;16.3833
2381;"Laab im Walde";48.15;16.1667
4663;"Laakirchen";47.9667;13.8167
7322;"Lackenbach";47.5833;16.4667
7321;"Lackendorf";47.5833;16.5
3295;"Lackenhof";47.8667;15.1333
2126;"Ladendorf";48.5333;16.4833
8233;"Lafnitz";47.3667;16.0167
3663;"Laimbach am Ostrong";48.3167;15.1167
8921;"Lainbach";47.6333;14.7667
4650;"Lambach";47.1167;14.3667
4659;"Lambach";47.1167;14.3667
4772;"Lambrechten";48.3167;13.5167
5112;"Lamprechtshausen";47.9833;12.95
6941;"Langenegg";47.4667;9.9
6444;"Längenfeld";47.0667;10.9667
3425;"Langenlebarn";48.3333;16.1167
3550;"Langenlois";48.4667;15.6667
3442;"Langenrohr";48.3;16
8665;"Langenwang";47.5667;15.6167
2103;"Langenzersdorf";48.3;16.35
3921;"Langschlag";48.4667;15.1833
8502;"Lannach";46.9461;15.3372
2821;"Lanzenkirchen";47.7333;16.2333
4291;"Lasberg";48.4667;14.5333
9314;"Launsdorf";46.7706;14.4519
4461;"Laussa";47.7167;14.6333
6923;"Lauterach";47.4831;9.73306
9473;"Lavamünd";46.65;14.9333
2361;"Laxenburg";48.0667;16.35
8403;"Lebring";46.8522;15.5383
6764;"Lech";47.2;10.15
9581;"Ledenitzen";46.5664;13.9614
3652;"Leiben";48.2333;15.2667
8430;"Leibnitz";46.7817;15.5417
2003;"Leitzersdorf";48.4167;16.2333
4132;"Lembach im Mühlkreis";48.4833;13.8833
5651;"Lend";47.3;13.0667
9811;"Lendorf";46.6578;14.2783
8700;"Leoben";46.9406;13.6089
8701;"Leoben";46.9406;13.6089
8703;"Leoben";46.9406;13.6089
8704;"Leoben";46.9406;13.6089
8706;"Leoben";46.9406;13.6089
8707;"Leoben";46.9406;13.6089
2544;"Leobersdorf";47.9167;16.2167
5771;"Leogang";47.4333;12.75
4059;"Leonding";48.2667;14.25
4060;"Leonding";48.2667;14.25
4069;"Leonding";48.2667;14.25
4592;"Leonstein";47.8833;14.2167
4262;"Leopoldschlag";48.6167;14.5
2285;"Leopoldsdorf im Marchfelde";48.2167;16.6833
6631;"Lermoos";47.4;10.8833
6105;"Leutasch";47.3667;11.15
8463;"Leutschach";46.6672;15.4689
9556;"Liebenfels";46.7378;14.2867
8501;"Lieboch";46.9742;15.3375
9851;"Lieserbrücke";46.8333;13.4833
8940;"Liezen";47.5667;14.2333
8563;"Ligist";46.9939;15.2108
3180;"Lilienfeld";48.0167;15.6333
3874;"Litschau";48.9333;15.05
7532;"Litzelsdorf";47.15;13.8
5221;"Lochen";48.0167;13.1833
8334;"Lödersdorf";46.9586;15.9433
5090;"Lofer";47.5833;12.6833
5311;"Loibichl";47.8333;13.4
3211;"Loich";47.9833;15.4
8282;"Loipersdorf bei Fürstenfeld";47;16.1
9335;"Lölling";46.9167;14.5833
4460;"Losenstein";47.9167;14.4333
6713;"Ludesch";47.2;9.78306
9072;"Ludmannsdorf";46.5333;14.1333
3762;"Ludweis";48.7667;15.4833
5523;"Lungötz";47.4833;13.4
3293;"Lunz am See";47.85;15.05
6890;"Lustenau";47.4331;9.65
7361;"Lutzmannsburg";47.4667;16.6333
6841;"Mäder";47.35;9.61667
2024;"Mailberg";48.6667;16.1833
5751;"Maishofen";47.3667;12.8
3712;"Maissau";48.5667;15.8167
9822;"Mallnitz";46.9928;13.15
3240;"Mank";48.1;15.3333
2452;"Mannersdorf am Leithagebirge";47.9667;16.6
7444;"Mannersdorf an der Rabnitz";47.4167;16.5167
3671;"Marbach an der Donau";48.2167;15.15
4614;"Marchtrenk";48.1833;14.1167
2433;"Margarethen am Moos";48.0333;16.6
5761;"Maria Alm am Steinernen Meer";47.4;12.9
3034;"Maria Anzbach";48.1833;15.9167
2344;"Maria Enzersdorf";48.1;16.2833
3643;"Maria Laach am Jauerling";48.3;15.3333
8591;"Maria Lankowitz";47.05;15.0667
2326;"Maria Lanzendorf";48.1;16.4167
9655;"Maria Luggau";46.7075;12.7397
4443;"Maria Neustift";47.9333;14.6
9161;"Maria Rain";46.5539;14.2956
9422;"Maria Rojach";46.7333;14.8833
9063;"Maria Saal";46.6808;14.3486
5241;"Maria Schmolln";48.1333;13.2
2642;"Maria Schutz";47.15;15.4333
3672;"Maria Taferl";48.2167;15.15
9082;"Maria Wörth";46.6164;14.1631
8812;"Mariahof";47.1;14.4
5571;"Mariapfarr";47.15;13.75
7433;"Mariasdorf";47.3667;16.2167
8630;"Mariazell";47.7667;15.3167
2282;"Markgrafneusiedl";48.2667;16.6333
7411;"Markt Allhau";47.2833;16.0833
7464;"Markt Neuhodis";47.3;16.4
2753;"Markt Piesting";47.8667;16.1333
7221;"Marz";47.3;11.8833
6143;"Matrei am Brenner";47.1333;11.45
9971;"Matrei in Osttirol";47;12.5333
7210;"Mattersburg";47.7333;16.4
5230;"Mattighofen";48.1;13.15
5163;"Mattsee";47.9667;13.1
2243;"Matzen";46.5089;14.3653
3001;"Mauerbach";48.2;16.2333
5270;"Mauerkirchen";48.1833;13.1333
6212;"Maurach";47.2833;13.2167
8774;"Mautern in Steiermark";47.4;14.8333
4310;"Mauthausen";48.2333;14.5167
6290;"Mayrhofen";47.1667;11.8667
4714;"Meggenhofen";48.1833;13.8
4941;"Mehrnbach";48.2167;13.4333
9312;"Meiselding";46.8397;14.3978
3390;"Melk";48.2167;15.3167
6881;"Mellau";47.35;9.88333
3761;"Messern";48.7167;15.5167
8092;"Mettersdorf am Saßbach";46.8058;15.7111
4931;"Mettmach";48.1667;13.35
5152;"Michaelbeuern";48.0167;13.0333
4712;"Michaelnbach";48.2833;13.8167
4563;"Micheldorf in Oberösterreich";47.8667;14.1333
3451;"Michelhausen";48.2833;15.9333
6142;"Mieders";47.1667;11.3833
6414;"Mieming";47.3;10.9833
9133;"Miklauzhof";46.5367;14.5981
6068;"Mils";47.2;10.6667
4962;"Mining";48.2667;13.15
7511;"Mischendorf";47.1833;16.3167
2130;"Mistelbach an der Zaya";48.57;16.5767
4613;"Mistelbach bei Wels";48.2333;14.0667
3621;"Mitterarnsdorf";48.3667;15.4333
5503;"Mitterberghütten";47.4;13.2167
8662;"Mitterdorf im Mürztal";47.5333;15.5167
4343;"Mitterkirchen";48.1833;14.7
2441;"Mitterndorf an der Fischa";47.9833;16.4667
5730;"Mittersill";47.2667;12.4833
9102;"Mittertrixen";46.6983;14.5853
9912;"Mittewald an der Drau";46.7667;12.6
8131;"Mixnitz";47.3167;15.3667
8763;"Möderbrugg";47.2761;14.4839
2340;"Mödling";48.0667;16.3833
2342;"Mödling";48.0667;16.3833
8382;"Mogersdorf";46.9492;16.2322
9813;"Möllbrücke";46.8364;13.3728
2513;"Möllersdorf";48.0167;16.3
4591;"Molln";47.8833;14.25
4281;"Mönchdorf";48.35;14.8
7123;"Mönchhof";47.8667;16.9333
5310;"Mondsee";47.8167;13.3833
2872;"Mönichkirchen";47.5;16.0333
8252;"Mönichwald";47.45;15.8667
9062;"Moosburg in Kärnten";46.6575;14.1747
5141;"Moosdorf";48.05;12.9833
8562;"Mooskirchen";46.9817;15.2789
7072;"Mörbisch am See";47.75;16.6667
9842;"Mörtschach";46.9239;12.9178
6423;"Mötz";47.2833;10.95
5505;"Mühlbach am Hochkönig";47.3777;13.1127
3473;"Mühlbach am Manhartsberg";48.5167;15.7833
8822;"Mühlen";47.0333;14.5
5583;"Muhr";47.1167;13.5
7052;"Müllendorf";47.8333;16.45
2482;"Münchendorf";48.0333;16.3833
5222;"Munderfing";48.0667;13.1833
3662;"Münichreith am Ostrong";48.25;15.1167
4323;"Münzbach";48.2667;14.7
4792;"Münzkirchen";48.4833;13.5667
8850;"Murau";47.1;14.1667
8480;"Mureck";46.7081;15.7747
8644;"Mürzhofen";47.4833;15.3833
8693;"Mürzsteg";47.6667;15.4833
8680;"Mürzzuschlag";47.6;15.6833
2723;"Muthmannsdorf";47.8333;16.1
6162;"Mutters";47.2333;11.3833
4331;"Naarn im Machland";48.2167;14.6
2023;"Nappersdorf";48.6167;16.1833
6465;"Nassereith";47.3167;10.8333
4723;"Natternbach";48.4;13.75
6161;"Natters";47.2333;11.3667
6543;"Nauders";46.8833;10.5167
7311;"Neckenmarkt";47.6;16.55
6710;"Nenzing";47.1831;9.7
6672;"Nesselwängle";47.4833;10.6167
8302;"Nestelbach bei Graz";47.0667;15.6
8692;"Neuberg an der Mürz";47.6667;15.5667
8292;"Neudau";46.8333;14.8333
2475;"Neudorf";46.5833;14.2833
2135;"Neudorf bei Staatz";48.7208;16.4914
2491;"Neufeld an der Leitha";47.85;16.3667
4120;"Neufelden";48.4833;14
8385;"Neuhaus am Klausenbach";46.8667;16.0333
4501;"Neuhofen an der Krems";48.1333;14.2167
3364;"Neuhofen an der Ybbs";48.05;14.85
5741;"Neukirchen am Großvenediger";47.25;12.2833
4724;"Neukirchen am Walde";48.4;13.7667
5145;"Neukirchen an der Enknach";48.1833;13.05
4872;"Neukirchen an der Vöckla";48.0333;13.5333
4671;"Neukirchen bei Lambach";48.1;13.8167
3040;"Neulengbach";48.2;15.9
5202;"Neumarkt am Wallersee";47.95;13.2333
3371;"Neumarkt an der Ybbs";48.1333;15.05
4720;"Neumarkt im Hausruckkreis";48.2667;13.7167
4212;"Neumarkt im Mühlkreis";48.4167;14.4833
8820;"Neumarkt in Steiermark";47.0708;14.4228
3593;"Neupölla";48.6333;15.4333
7100;"Neusiedl am See";47.9333;16.8333
2183;"Neusiedl an der Zaya";48.6333;16.8
6167;"Neustift im Stubaital";47.1167;11.3167
7343;"Neutal";47.5333;16.4333
4523;"Neuzeug";48.05;14.3333
2272;"Niederabsdorf";48.5667;16.85
2081;"Niederfladnitz";48.7833;15.8833
2004;"Niederhollabrunn";48.4333;16.3
4133;"Niederkappel";48.4667;13.8833
2124;"Niederkreuzstetten";48.4667;16.4667
2116;"Niederleis";48.55;16.4
4491;"Niederneukirchen";48.15;14.3333
5722;"Niedernsill";47.2833;12.65
3702;"Niederrußbach";48.45;16.0333
4692;"Niederthalheim";48.1;13.75
4174;"Niederwaldkirchen";48.45;14.0833
8831;"Niederwölz";47.15;14.3667
7302;"Nikitsch";47.5333;16.6667
8712;"Niklasdorf";47.3833;15.15
9782;"Nikolsdorf";46.7858;12.9133
3691;"Nöchling";48.2167;14.9833
9611;"Nötsch im Gailtal";46.5833;13.5833
5151;"Nußdorf am Haunsberg";47.9594;13.0092
6714;"Nüziders";47.1667;9.8
8742;"Obdach";47.0667;14.6833
5411;"Oberalm";47.7;13.1
9781;"Oberdrauburg";46.7431;12.9703
4593;"Obergrünburg";47.95;14.25
6456;"Obergurgl";46.8667;11.0167
8455;"Oberhaag";46.6858;15.3361
4894;"Oberhofen am Irrsee";47.95;13.3
4144;"Oberkappel";48.55;13.7667
7451;"Oberloisdorf";47.45;16.5
3521;"Obermeisling";48.4667;15.45
4131;"Obermühl";48.45;13.9167
4982;"Obernberg am Inn";48.3167;13.3333
3281;"Oberndorf an der Melk";48.05;15.2167
5110;"Oberndorf bei Salzburg";47.95;12.9333
6372;"Oberndorf in Tirol";47.5;12.3833
6173;"Oberperfuss";47.2333;11.25
7350;"Oberpullendorf";47.5;16.5167
2105;"Oberrohrbach";46.9833;14.9667
7432;"Oberschützen";47.35;16.2
2283;"Obersiebenbrunn";48.2667;16.7
2224;"Obersulz";48.5;16.6667
5562;"Obertauern";47.25;13.5333
9942;"Obertilliach";46.7106;12.6144
4831;"Obertraun";47.55;13.6833
5162;"Obertrum am See";47.9372;13.0772
9821;"Obervellach";46.6367;13.4183
2522;"Oberwaltersdorf";47.9667;16.3167
4882;"Oberwang";47.8667;13.4333
7400;"Oberwart";47.2833;16.2
2295;"Oberweiden";48.3;16.8167
3124;"Oberwölbling";48.3167;15.5833
8832;"Oberwölz";47.2;14.2667
8762;"Oberzeiring";47.25;14.4833
8960;"Öblarn";47.45;13.9833
3123;"Obritzberg";48.2833;15.5833
6416;"Obsteig";47.3;10.9333
4064;"Oftering";48.2333;14.1333
7063;"Oggau";47.8333;16.6667
4694;"Ohlsdorf";47.95;13.7833
7534;"Olbendorf";47.1833;16.2
3061;"Ollersbach";48.1833;15.8333
7533;"Ollersdorf im Burgenland";47.1833;16.1667
3342;"Opponitz";47.8667;14.8167
4974;"Ort im Innkreis";47.9;13.7833
2304;"Orth an der Donau";48.1333;16.7
7064;"Oslip";47.8333;16.6167
9570;"Ossiach";46.6667;13.9833
5121;"Ostermiething";48.05;12.8333
4100;"Ottensheim";48.3333;14.1833
4363;"Pabneukirchen";48.3167;14.8167
8341;"Paldau";46.9422;15.7958
8923;"Palfau";47.7;14.8
2182;"Palterndorf";48.5833;16.8167
2422;"Pama";48.05;17.0333
7152;"Pamhagen";47.7;16.9167
7111;"Parndorf";47.9833;16.85
6794;"Partenen";46.9667;10.05
4061;"Pasching";48.25;14.2
4066;"Pasching";48.25;14.2
8162;"Passail";47.2833;15.5167
9564;"Patergassen";46.8158;13.8722
9711;"Paternion";46.7142;13.6361
6082;"Patsch";47.2;11.4167
2650;"Payerbach";47.6833;15.85
8120;"Peggau";47.2;15.35
4153;"Peilstein im Mühlviertel";48.6167;13.8833
4624;"Pennewang";48.1333;13.85
2380;"Perchtoldsdorf";48.1167;16.2667
4320;"Perg";48.25;14.6333
8132;"Pernegg an der Mur";47.35;15.3333
3142;"Perschling";48.25;15.8
3680;"Persenbeug";48.1833;15.0667
6213;"Pertisau";47.4333;11.7
2404;"Petronell";48.1167;16.85
3252;"Petzenkirchen";48.1333;15.15
4722;"Peuerbach";48.3333;13.7833
3834;"Pfaffenschlag bei Waidhofen an der Thaya";48.8333;15.1833
5452;"Pfarrwerfen";47.45;13.2
6542;"Pfunds";46.9667;10.55
6551;"Pians";47.1333;10.5
4632;"Pichl bei Wels";48.1833;13.9
4282;"Pierbach";48.35;14.75
5721;"Piesendorf";47.2833;12.7167
7441;"Pilgersdorf";47.4333;16.35
2211;"Pillichsdorf";48.35;16.5333
8243;"Pinggau";47.4333;16.0667
7423;"Pinkafeld";47.3667;16.1167
4812;"Pinsdorf";47.9167;13.7667
5233;"Pischelsdorf am Engelbach";48.1167;13.0833
8212;"Pischelsdorf in Steiermark";47.1667;15.8
2823;"Pitten";47.7167;16.1833
3564;"Plank am Kamp";48.55;15.6667
3380;"Pöchlarn";48.2;15.2
7141;"Podersdorf am See";47.85;16.8333
3650;"Pöggstall";48.3167;15.1833
4951;"Polling im Innkreis";48.2333;13.2667
8761;"Pöls";46.8833;15.4
4891;"Pöndorf";48;13.3833
3140;"Pottenbrunn";48.2333;15.7
2486;"Pottendorf";47.9;16.3833
7033;"Pöttsching";47.8;16.3833
2473;"Potzneusiedl";48.0333;16.9333
2161;"Poysbrunn";48.7167;16.6167
2170;"Poysdorf";48.6667;16.6333
9974;"Prägraten";47.0167;12.3833
4731;"Prambachkirchen";48.3167;13.9167
4874;"Pramet";48.1333;13.4833
9461;"Prebl";46.9167;14.8
8504;"Preding";46.8586;15.4097
8863;"Predlitz";47.0667;13.9167
4230;"Pregarten";48.35;14.5333
9451;"Preitenegg";46.94;14.9258
2472;"Prellenkirchen";48.0667;16.95
3021;"Pressbaum";48.1833;16.0833
2185;"Prinzendorf an der Zaya";48.6;16.7208
3385;"Prinzersdorf";48.2;15.5167
2242;"Prottes";48.3833;16.7333
8965;"Pruggern";47.4167;13.8667
6522;"Prutz";47.0833;10.6667
5412;"Puch bei Hallein";47.7167;13.1
8182;"Puch bei Weiz";47.2167;15.7167
2734;"Puchberg am Schneeberg";47.7833;15.9
4048;"Puchenau";48.3167;14.2333
3214;"Puchenstuben";47.9167;15.2833
4055;"Pucking";48.1833;14.1833
3741;"Pulkau";48.7;15.85
3944;"Pürbach";46.9667;13.6167
3002;"Purkersdorf";48.2;16.1667
9812;"Pusarnitz";46.8333;13.4
8764;"Pusterwald";47.3061;14.3756
9104;"Pustritz";46.75;14.75
4134;"Putzleinsdorf";48.5167;13.8833
8074;"Raaba";47.0333;15.5
3820;"Raabs an der Thaya";48.85;15.5
2274;"Rabensburg";48.65;16.9
9545;"Radenthein";46.8006;13.7117
8795;"Radmer";47.5167;14.7
5550;"Radstadt";47.3833;13.45
6741;"Raggal";47.2167;9.83306
2215;"Raggendorf";48.3833;16.6667
4791;"Rainbach im Innkreis";48.45;13.5333
4261;"Rainbach im Mühlkreis";48.55;14.4667
5591;"Ramingstein";47.0667;13.8333
8972;"Ramsau am Dachstein";47.4167;13.6333
9833;"Rangersdorf";46.8653;12.9783
6830;"Rankweil";47.2831;9.65
8853;"Ranten";47.15;14.0833
3911;"Rappottenstein";48.5167;15.0667
8673;"Ratten";47.4833;15.7167
5661;"Rauris";47.2167;13
3720;"Ravelsbach";48.55;15.85
3654;"Raxendorf";48.3333;15.2667
7471;"Rechnitz";47.3;16.45
4844;"Regau";47.9833;13.6833
2403;"Regelsbrunn";48.1;16.7667
2651;"Reichenau an der Rax";47.7;15.8333
4204;"Reichenau im Mühlkreis";48.45;14.35
9463;"Reichenfels";47;14.75
4981;"Reichersberg";48.2667;16.0667
4462;"Reichraming";47.8833;14.45
9081;"Reifnitz";46.6072;14.1817
8103;"Rein";47.1333;15.2833
3863;"Reingers";48.9667;15.1333
9633;"Reisach";46.6547;13.1536
6103;"Reith bei Seefeld";47.3;11.2
6235;"Reith im Alpbachtal";47.4167;11.8833
3031;"Rekawinkel";48.1667;16.0167
9863;"Rennweg";46.7833;14.1269
8674;"Rettenegg";47.5333;15.7833
6600;"Reutte";47.4833;10.7167
3004;"Ried am Riederberg";48.25;16.0667
4910;"Ried im Innkreis";48.2167;13.5
6531;"Ried im Oberinntal";47.05;10.65
4551;"Ried im Traunkreis";48.0167;14.0667
4312;"Ried in der Riedmark";48.2667;14.5167
4752;"Riedau";48.3;13.6333
7422;"Riedlingsdorf";47.35;16.1333
6943;"Riefensberg";47.5;9.96667
9587;"Riegersdorf";46.5472;13.8228
2663;"Rohr im Gebirge";47.8833;15.7333
4532;"Rohr im Kremstal";48.0667;14.1667
2471;"Rohrau";48.0667;16.85
3163;"Rohrbach an der Gölsen";48.0333;15.7333
8234;"Rohrbach an der Lafnitz";47.3833;16
7222;"Rohrbach bei Mattersburg";47.7167;16.4167
4150;"Rohrbach in Oberösterreich";48.5333;13.95
3495;"Rohrendorf bei Krems";48.4167;15.65
4661;"Roitham";48.0333;13.8333
6426;"Roppen";47.2167;10.8167
3743;"Röschitz";48.65;15.8667
9232;"Rosegg";46.5833;14.0333
9183;"Rosenbach";46.5333;14.0333
3573;"Rosenburg";48.6333;15.6333
8582;"Rosental an der Kainach";47.0333;15.1
3602;"Rossatz";48.3833;15.5
7501;"Rotenturm an der Pinka";47.25;16.25
4112;"Rottenegg";48.3667;14.1333
8786;"Rottenmann";47.5276;14.3617
9113;"Ruden";46.6583;14.7764
6063;"Rum";47.2833;11.45
6064;"Rum";47.2833;11.45
4845;"Rutzenmoos";47.9667;13.7
5753;"Saalbach";47.3833;12.6333
5760;"Saalfelden am Steinernen Meer";47.4167;12.85
8592;"Salla";47.1;14.9667
3525;"Sallingberg";48.4667;15.2333
5010;"Salzburg";47.8041;13.0462
5012;"Salzburg";47.8041;13.0462
5014;"Salzburg";47.8041;13.0462
5015;"Salzburg";47.8041;13.0462
5016;"Salzburg";47.8041;13.0462
5017;"Salzburg";47.8041;13.0462
5020;"Salzburg";47.8041;13.0462
5022;"Salzburg";47.8041;13.0462
5024;"Salzburg";47.8041;13.0462
5027;"Salzburg";47.8041;13.0462
5032;"Salzburg";47.8041;13.0462
5033;"Salzburg";47.8041;13.0462
4251;"Sandl";47.7333;14.5333
4152;"Sarleinsbach";48.55;13.9
4382;"Sarmingstein";48.2167;14.9667
6822;"Satteins";47.2167;9.66667
9520;"Sattendorf";46.6686;13.905
4642;"Sattledt";48.0667;14.05
3374;"Säusenstein";48.2;15.1167
6432;"Sautens";47.2;10.8667
4351;"Saxen";48.2;14.7833
7472;"Schachendorf";47.2667;16.4333
8244;"Schäffern";47.4667;16.1
4784;"Schardenberg";48.5333;13.5
4780;"Schärding";48.45;13.4333
4782;"Schärding";48.45;13.4333
6108;"Scharnitz";47.3833;11.2833
4644;"Scharnstein";47.9;13.95
4612;"Scharten";47.4333;13.3
7022;"Schattendorf";47.7167;16.5
6677;"Schattwald";47.5167;10.45
6351;"Scheffau am Wilden Kaiser";47.5333;12.25
3270;"Scheibbs";48;15.1667
8811;"Scheifling";46.7806;14.4322
4192;"Schenkenfelden";48.5;14.3667
4521;"Schiedlberg";48.1;14.2667
9535;"Schiefling am See";46.6044;14.0975
8970;"Schladming";47.3833;13.6833
2123;"Schleinbach";48.4167;16.4667
6824;"Schlins";47.2;9.7
6262;"Schlitters";47.3667;11.8333
5212;"Schneegattern";48.0167;13.3
6882;"Schnepfau";47.35;9.95
8844;"Schöder";47.1833;14.1
4274;"Schönau im Mühlkreis";48.3833;14.7333
6141;"Schönberg im Stubaital";47.1833;11.4167
3392;"Schönbühel an der Donau";48.25;15.3667
6491;"Schönwies";47.1833;10.65
6886;"Schoppernau";47.3133;10.0175
2641;"Schottwien";47.65;15.8667
2073;"Schrattenthal";48.7;15.9
6888;"Schröcken";47.25;10.0833
6780;"Schruns";47.0667;9.91667
7081;"Schützen am Gebirge";47.85;16.6167
8541;"Schwanberg";46.7583;15.2083
5134;"Schwand im Innkreis";48.1833;12.9667
4690;"Schwanenstadt";48.05;13.7667
5620;"Schwarzach im Pongau";47.3167;13.15
2625;"Schwarzau am Steinfelde";47.7167;16.1667
2662;"Schwarzau im Gebirge";47.8;15.7
3212;"Schwarzenbach an der Pielach";47.9333;15.3833
6130;"Schwaz";47.3333;11.7
6131;"Schwaz";47.3333;11.7
2320;"Schwechat";48.1333;16.4667
3931;"Schweiggers";48.6667;15.0667
4311;"Schwertberg";48.2667;14.5833
8272;"Sebersdorf";47.2;15.9833
8732;"Seckau";47.2667;14.7833
2824;"Seebenstein";47.6833;16.1333
9871;"Seeboden";46.8219;13.495
6100;"Seefeld in Tirol";47.3333;11.1833
5164;"Seeham";47.9667;13.0833
8636;"Seewiesen";47.6167;15.2667
3353;"Seitenstetten";48.0333;14.65
6181;"Sellrain";47.2167;11.2167
8900;"Selzthal";47.55;14.3333
2680;"Semmering";47.6333;15.8167
8102;"Semriach";47.2167;15.4
6534;"Serfaus";47.0333;10.6
7011;"Siegendorf im Burgenland";47.7833;16.55
7223;"Sieggraben";47.65;16.3667
3443;"Sieghartskirchen";48.25;16
4522;"Sierning";47.8;15.9167
5072;"Siezenheim";47.8;12.9833
4771;"Sigharting";48.4;13.6
3751;"Sigmundsherberg";48.6833;15.75
9920;"Sillian";46.7528;12.4211
8261;"Sinabelkirchen";47.1;15.8167
4621;"Sipbachzell";48.1;14.1167
9571;"Sirnitz";46.8236;14.0594
6073;"Sistrans";47.2333;11.45
3714;"Sitzendorf an der Schmida";48.5833;15.9333
8554;"Soboth";46.6814;15.0783
8362;"Söchau";47.0333;16.0167
6450;"Sölden";46.9667;11
6306;"Söll";47.5;12.1833
2601;"Sollenau";47.8833;16.25
2453;"Sommerein";47.9833;16.65
9629;"Sonnleiten";46.7539;14.0261
6731;"Sonntag";47.2333;9.91667
2244;"Spannberg";48.45;16.7333
8724;"Spielberg bei Knittelfeld";47.2167;14.7833
8471;"Spielfeld";46.7056;15.6372
2104;"Spillern";48.3833;16.25
4582;"Spital am Pyhrn";47.65;14.3333
8684;"Spital am Semmering";47.6;15.75
9800;"Spittal an der Drau";46.7847;13.4403
9802;"Spittal an der Drau";46.7847;13.4403
9803;"Spittal an der Drau";46.7847;13.4403
8862;"Stadl an der Mur";47.0833;13.9667
4651;"Stadl-Paura";48.0833;13.8667
7461;"Stadtschlaining";47.3167;16.2833
8950;"Stainach";47.5333;14.1
8510;"Stainz";46.8244;15.8922
8152;"Stallhofen";46.6356;13.9772
6422;"Stams";47.2667;10.9833
8653;"Stanz im Mürztal";47.4667;15.5
6642;"Stanzach";47.3833;10.5667
3125;"Statzendorf";48.3;15.6333
7551;"Stegersbach";47.1667;16.1667
8961;"Stein an der Enns";47.4333;13.9333
2751;"Steinabrückl";47.8667;16.2
6150;"Steinach am Brenner";47.0833;11.4667
3261;"Steinakirchen am Forst";48.0667;15.0333
4853;"Steinbach am Attersee";47.8167;13.55
4562;"Steinbach am Ziehberg";47.8833;14.0167
4652;"Steinerkirchen an der Traun";48.0833;13.95
8685;"Steinhaus am Semmering";47.6167;15.8
3463;"Stetteldorf am Wagram";48.4;16.0167
4400;"Steyr";48.0333;14.4167
4402;"Steyr";48.0333;14.4167
4403;"Steyr";48.0333;14.4167
4404;"Steyr";48.0333;14.4167
4406;"Steyr";48.0333;14.4167
4221;"Steyregg";48.2833;14.3667
4662;"Steyrermühl";47.9833;13.8
4571;"Steyrling";47.8;14.1167
2262;"Stillfried";48.4;16.8333
7552;"Stinatz";47.2;16.1167
2463;"Stixneusiedl";48.0333;16.6667
9714;"Stockenboi";46.7261;13.5231
2000;"Stockerau";48.3833;16.2167
3744;"Stockern";47.3;12.8833
8852;"Stolzalpe";47.1214;14.1992
7344;"Stoob";47.5167;16.4667
3073;"Stössing";48.1167;15.8
8345;"Straden";46.8092;15.8681
8192;"Strallegg";47.4;15.7167
3722;"Straning";48.6;15.85
6261;"Strass im Zillertal";47.3833;11.8167
8472;"Straß in Steiermark";46.7272;15.6244
2231;"Strasshof an der Nordbahn";48.3167;16.6667
9162;"Strau";46.5333;14.25
7522;"Strem";47.05;16.4167
3314;"Strengberg";47.9333;15.95
6571;"Strengen";47.1333;10.45
5350;"Strobl";47.45;15.6
4074;"Stroheim";48.3333;13.95
2153;"Stronsdorf";48.65;16.2833
8322;"Studenzen";47.0058;15.7542
5724;"Stuhlfelden";47.2833;12.5167
4975;"Suben";48.4167;13.4333
2392;"Sulz im Wienerwald";48.1;16.1333
7162;"Tadten";47.7667;16.9833
9121;"Tainach";46.6333;14.5333
4753;"Taiskirchen im Innkreis";48.2667;13.5667
5580;"Tamsweg";47.1333;13.8
6464;"Tarrenz";47.2667;10.7667
4775;"Taufkirchen an der Pram";48.4;13.5333
4715;"Taufkirchen an der Trattnach";48.25;13.75
8982;"Tauplitz";47.55;14
5660;"Taxenbach";47.2833;12.9667
2524;"Teesdorf";47.95;16.2833
6165;"Telfes im Stubai";47.1667;11.3667
6410;"Telfs";47.3;11.0667
5451;"Tenneck";47.45;13.0667
6123;"Terfens";47.3167;11.65
4452;"Ternberg";47.9333;14.35
2630;"Ternitz";47.7167;16.0333
2634;"Ternitz";47.7167;16.0333
8833;"Teufenbach";46.9;15.2167
3242;"Texing";48.0333;15.3167
5303;"Thalgau";47.8333;13.25
4609;"Thalheim bei Wels";48.15;14.0333
6065;"Thaur";47.3;11.4667
3842;"Thaya";47.1347;14.3594
4062;"Thening";48.25;14.1667
3742;"Theras";48.7333;15.7833
2604;"Theresienfeld";47.85;16.2333
6335;"Thiersee";47.5833;12.0833
4905;"Thomasroith";48.0833;13.6167
6712;"Thüringen";47.2;9.76667
6721;"Thüringerberg";47.2167;9.78306
8355;"Tieschen";46.7861;15.9422
4850;"Timelkam";48;13.6
8772;"Timmersdorf";47.3667;14.95
8144;"Tobelbad";46.9456;15.3756
6541;"Tösens";47.0167;10.6
4284;"Tragwein";48.3333;14.6167
3160;"Traisen";48.0333;15.6
2514;"Traiskirchen";48.0167;16.2833
3133;"Traismauer";48.35;15.7333
4050;"Traun";47.55;13.6833
4801;"Traunkirchen";47.8333;13.7833
7061;"Trausdorf an der Wulka";47.8;16.55
8951;"Trautenfels";47.5167;14.0833
2454;"Trautmannsdorf an der Leitha";48.0167;16.6333
8343;"Trautmannsdorf in Oststeiermark";46.8667;15.8833
9852;"Trebesing";46.8864;13.5103
8782;"Treglwang";47.4667;14.5833
5272;"Treubach";48.1833;13.2167
2512;"Tribuswinkel";48;16.2667
8784;"Trieben";47.4833;14.4833
6152;"Trins";47.0833;11.4167
8793;"Trofaiach";47.4167;15
6774;"Tschagguns";47.0833;9.9
3434;"Tulbing";48.2833;16.1167
3013;"Tullnerbach-Lawies";48.1833;16.0833
8625;"Turnau";47.55;15.3333
8864;"Turrach";46.9608;13.8878
6293;"Tux";47.15;11.75
5563;"Tweng";47.1833;13.6
9441;"Twimberg";46.9161;14.8453
8124;"Übelbach";47.2;15.3333
6271;"Uderns";47.3167;11.8667
2122;"Ulrichskirchen";48.4;16.4833
6441;"Umhausen";47.1333;10.9333
4841;"Ungenach";48.05;13.6167
5091;"Unken";47.65;12.7167
9124;"Unterburg am Klopeiner See";46.6;14.6
4231;"Untergaisbach";48.3333;14.5
7435;"Unterkohlstätten";47.3833;16.3167
8352;"Unterlamm";46.85;14.0167
8141;"Unterpremstätten";46.9647;15.4042
7452;"Unterpullendorf";47.4667;16.5333
8484;"Unterpurkla";46.7339;15.9078
7371;"Unterrabnitz";47.45;16.3667
2074;"Unterretzbach";48.7667;16
2284;"Untersiebenbrunn";48.25;16.7333
2154;"Unterstinkenbrunn";48.6667;16.3333
5561;"Untertauern";47.3;13.5
3011;"Untertullnerbach";48.1833;16.1
2442;"Unterwaltersdorf";47.95;16.4167
8800;"Unzmarkt";47.2;14.45
4972;"Utzenaich";48.2833;13.4667
6773;"Vandans";47.0833;9.86667
4091;"Vichtenstein";48.5333;13.6667
3322;"Viehdorf";48.15;14.5
5424;"Vigaun";47.6667;13.1333
9500;"Villach";46.6103;13.8558
9501;"Villach";46.6103;13.8558
9503;"Villach";46.6103;13.8558
9505;"Villach";46.6103;13.8558
9506;"Villach";46.6103;13.8558
9507;"Villach";46.6103;13.8558
9508;"Villach";46.6103;13.8558
6682;"Vils";47.55;10.6333
4840;"Vöcklabruck";48.0167;13.65
4870;"Vöcklamarkt";48;13.4833
8570;"Voitsberg";47.0333;15.15
6111;"Volders";47.2833;11.5667
9100;"Völkermarkt";46.6622;14.6344
6176;"Völs";47.25;11.3333
6177;"Völs";47.25;11.3333
6134;"Vomp";47.3333;11.6833
8250;"Vorau";47.4;15.8833
4655;"Vorchdorf";48;13.9167
8794;"Vordernberg";47.4667;15
4574;"Vorderstoder";47.7;14.2167
2331;"Vösendorf";48.1167;16.3333
8435;"Wagna";46.75;15.55
5602;"Wagrain";47.3353;13.2989
3830;"Waidhofen an der Thaya";48.8167;15.2833
3340;"Waidhofen an der Ybbs";47.9667;14.7667
6384;"Waidring";47.5833;12.5667
4730;"Waizenkirchen";48.3333;13.8667
6344;"Walchsee";47.65;12.3167
8781;"Wald am Schoberpaß";47.45;14.6667
5742;"Wald im Pinzgau";47.25;12.2333
8253;"Waldbach";47.3333;13.9167
4391;"Waldhausen im Strudengau";48.2667;14.9333
4111;"Walding";48.35;14.1667
3844;"Waldkirchen an der Thaya";48.9333;15.35
4595;"Waldneukirchen";47.9833;14.25
8122;"Waldstein";47.2167;15.2667
4924;"Waldzell";48.1333;13.4333
3752;"Walkenstein";48.7167;15.7167
4702;"Wallern an der Trattnach";48.2333;13.95
7151;"Wallern im Burgenland";47.7167;16.9333
3313;"Wallsee";48.1667;14.7167
2485;"Wampersdorf";47.9167;16.4167
4552;"Wartberg an der Krems";47.9833;14.1167
8661;"Wartberg im Mürztal";47.5167;15.5
4224;"Wartberg ob der Aist";48.35;14.5
6112;"Wattens";47.2833;11.6
4182;"Waxenberg";48.4667;14.1833
6133;"Weerberg";47.3;11.6667
7121;"Weiden am See";47.9167;16.8667
7463;"Weiden bei Rechnitz";47.3;16.35
3411;"Weidling";48.2833;16.3
2253;"Weikendorf";48.35;16.7667
3823;"Weikertschlag an der Thaya";48.9;15.4667
8481;"Weinburg am Saßbach";46.7536;15.7211
2564;"Weissenbach an der Triesting";47.9667;16.0333
9762;"Weißensee";47.3167;13.9667
8741;"Weißkirchen in Steiermark";47.15;14.7333
3351;"Weistrach";48.05;14.5833
9344;"Weitensfeld";46.8333;15.1
8473;"Weitersfeld an der Mur";46.7;15.7167
4272;"Weitersfelden";48.4667;14.7167
3970;"Weitra";48.7;14.8833
8160;"Weiz";47.2167;15.6167
4600;"Wels";48.1667;14.0333
4601;"Wels";48.1667;14.0333
4603;"Wels";48.1667;14.0333
4604;"Wels";48.1667;14.0333
4605;"Wels";48.1667;14.0333
4606;"Wels";48.1667;14.0333
4952;"Weng im Innkreis";48.2333;13.1833
8254;"Wenigzell";47.4167;15.7833
6473;"Wenns";47.1667;10.7333
7331;"Weppersdorf";47.5833;16.4333
5450;"Werfen";47.4667;13.1833
5453;"Werfenweng";47.4667;13.25
9241;"Wernberg";46.6167;13.9333
8402;"Werndorf";46.9242;15.4908
4783;"Wernstein am Inn";48.5;13.4667
4085;"Wesenufer";48.45;13.8167
8521;"Wettmannstätten";46.8306;15.3872
4852;"Weyregg am Attersee";47.9;13.5667
1004;"Wien";48.2;16.3667
1010;"Wien";48.2;16.3667
1012;"Wien";48.2;16.3667
1013;"Wien";48.2;16.3667
1014;"Wien";48.2;16.3667
1015;"Wien";48.2;16.3667
1016;"Wien";48.2;16.3667
1020;"Wien";48.2;16.3667
1022;"Wien";48.2;16.3667
1023;"Wien";48.2;16.3667
1024;"Wien";48.2;16.3667
1025;"Wien";48.2;16.3667
1030;"Wien";48.2;16.3667
1032;"Wien";48.2;16.3667
1033;"Wien";48.2;16.3667
1034;"Wien";48.2;16.3667
1035;"Wien";48.2;16.3667
1036;"Wien";48.2;16.3667
1037;"Wien";48.2;16.3667
1038;"Wien";48.2;16.3667
1040;"Wien";48.2;16.3667
1042;"Wien";48.2;16.3667
1043;"Wien";48.2;16.3667
1045;"Wien";48.2;16.3667
1050;"Wien";48.2;16.3667
1052;"Wien";48.2;16.3667
1053;"Wien";48.2;16.3667
1060;"Wien";48.2;16.3667
1062;"Wien";48.2;16.3667
1070;"Wien";48.2;16.3667
1072;"Wien";48.2;16.3667
1080;"Wien";48.2;16.3667
1082;"Wien";48.2;16.3667
1090;"Wien";48.2;16.3667
1092;"Wien";48.2;16.3667
1093;"Wien";48.2;16.3667
1094;"Wien";48.2;16.3667
1095;"Wien";48.2;16.3667
1096;"Wien";48.2;16.3667
1097;"Wien";48.2;16.3667
1100;"Wien";48.2;16.3667
1102;"Wien";48.2;16.3667
1103;"Wien";48.2;16.3667
1104;"Wien";48.2;16.3667
1105;"Wien";48.2;16.3667
1106;"Wien";48.2;16.3667
1107;"Wien";48.2;16.3667
1108;"Wien";48.2;16.3667
1110;"Wien";48.2;16.3667
1112;"Wien";48.2;16.3667
1113;"Wien";48.2;16.3667
1120;"Wien";48.2;16.3667
1122;"Wien";48.2;16.3667
1123;"Wien";48.2;16.3667
1124;"Wien";48.2;16.3667
1125;"Wien";48.2;16.3667
1126;"Wien";48.2;16.3667
1127;"Wien";48.2;16.3667
1130;"Wien";48.2;16.3667
1132;"Wien";48.2;16.3667
1133;"Wien";48.2;16.3667
1134;"Wien";48.2;16.3667
1136;"Wien";48.2;16.3667
1140;"Wien";48.2;16.3667
1142;"Wien";48.2;16.3667
1143;"Wien";48.2;16.3667
1144;"Wien";48.2;16.3667
1145;"Wien";48.2;16.3667
1147;"Wien";48.2;16.3667
1149;"Wien";48.2;16.3667
1150;"Wien";48.2;16.3667
1152;"Wien";48.2;16.3667
1153;"Wien";48.2;16.3667
1160;"Wien";48.2;16.3667
1162;"Wien";48.2;16.3667
1163;"Wien";48.2;16.3667
1164;"Wien";48.2;16.3667
1165;"Wien";48.2;16.3667
1166;"Wien";48.2;16.3667
1170;"Wien";48.2;16.3667
1172;"Wien";48.2;16.3667
1173;"Wien";48.2;16.3667
1174;"Wien";48.2;16.3667
1180;"Wien";48.2;16.3667
1182;"Wien";48.2;16.3667
1183;"Wien";48.2;16.3667
1184;"Wien";48.2;16.3667
1190;"Wien";48.2;16.3667
1192;"Wien";48.2;16.3667
1193;"Wien";48.2;16.3667
1194;"Wien";48.2;16.3667
1195;"Wien";48.2;16.3667
1196;"Wien";48.2;16.3667
1197;"Wien";48.2;16.3667
1199;"Wien";48.2;16.3667
1200;"Wien";48.2;16.3667
1202;"Wien";48.2;16.3667
1203;"Wien";48.2;16.3667
1204;"Wien";48.2;16.3667
1205;"Wien";48.2;16.3667
1206;"Wien";48.2;16.3667
1210;"Wien";48.2;16.3667
1212;"Wien";48.2;16.3667
1213;"Wien";48.2;16.3667
1214;"Wien";48.2;16.3667
1215;"Wien";48.2;16.3667
1216;"Wien";48.2;16.3667
1217;"Wien";48.2;16.3667
1218;"Wien";48.2;16.3667
1220;"Wien";48.2;16.3667
1222;"Wien";48.2;16.3667
1223;"Wien";48.2;16.3667
1224;"Wien";48.2;16.3667
1225;"Wien";48.2;16.3667
1226;"Wien";48.2;16.3667
1227;"Wien";48.2;16.3667
1228;"Wien";48.2;16.3667
1229;"Wien";48.2;16.3667
1230;"Wien";48.2;16.3667
1232;"Wien";48.2;16.3667
1233;"Wien";48.2;16.3667
1234;"Wien";48.2;16.3667
1235;"Wien";48.2;16.3667
1236;"Wien";48.2;16.3667
1237;"Wien";48.2;16.3667
1238;"Wien";48.2;16.3667
1239;"Wien";48.2;16.3667
1600;"Wien";48.2;16.3667
1810;"Wien";48.2;16.3667
2351;"Wiener Neudorf";48.0667;16.3167
2355;"Wiener Neudorf";48.0667;16.3167
2700;"Wiener Neustadt";47.8;16.25
2702;"Wiener Neustadt";47.8;16.25
2703;"Wiener Neustadt";47.8;16.25
2704;"Wiener Neustadt";47.8;16.25
3223;"Wienerbruck";47.85;15.3167
2811;"Wiesmath";47.6167;16.2833
9374;"Wieting";46.8714;14.5436
8924;"Wildalpen";47.65;14.9833
9323;"Wildbad Einöd";47.0167;14.4
2164;"Wildendürnbach";48.7378;16.5506
8410;"Wildon";46.8833;15.5167
2462;"Wilfleinsdorf";48.0167;16.7167
4073;"Wilhering";48.3167;14.2
7092;"Winden am See";47.95;16.75
4263;"Windhaag bei Freistadt";48.5833;14.55
4322;"Windhaag bei Perg";48.2833;14.6667
3841;"Windigsteig";48.7667;15.2833
4580;"Windischgarsten";47.7167;14.3333
7412;"Wolfau";47.1667;13.25
4493;"Wolfern";48.0833;14.3667
8421;"Wolfsberg im Schwarzautal";46.8439;15.6589
4902;"Wolfsegg am Hausruck";48.1;13.6667
3012;"Wolfsgraben";48.15;16.1667
2412;"Wolfsthal";48.1333;17
6922;"Wolfurt";47.4667;9.75
2752;"Wöllersdorf";47.8667;16.1667
6300;"Wörgl";47.4833;12.0667
8942;"Wörschach";47.55;14.15
8293;"Wörth an der Lafnitz";47.2;16.0667
7041;"Wulkaprodersdorf";47.8;16.5
2041;"Wullersdorf";48.6167;16.1
2064;"Wulzeshofen";48.7167;16.3
8142;"Wundschuh";46.9264;15.4511
3042;"Würmla";48.25;15.85
2112;"Würnitz";48.4167;16.4167
3370;"Ybbs an der Donau";48.1667;15.0833
3341;"Ybbsitz";47.9333;14.8833
6511;"Zams";47.15;10.5833
5584;"Zederhaus";47.15;13.5
3311;"Zeillern";48.1167;14.8
3424;"Zeiselmauer";48.3333;16.1667
4893;"Zell am Moos";47.9;13.3167
5700;"Zell am See";47.3167;12.7833
5705;"Zell am See";47.3167;12.7833
6280;"Zell am Ziller";47.2333;11.8833
4755;"Zell an der Pram";48.3167;13.6167
2051;"Zellerndorf";48.6833;15.95
8740;"Zeltweg";47.1833;14.75
7023;"Zemendorf";47.75;16.45
3710;"Ziersdorf";48.5167;15.9167
7034;"Zillingtal";47.8167;16.4
4871;"Zipf";48.0333;13.5
6170;"Zirl";47.2833;11.2333
2225;"Zistersdorf";48.5333;16.75
9713;"Zlan";46.7167;13.5833
2871;"Zöbern";47.5;16.1167
2424;"Zurndorf";47.9667;17
6763;"Zürs";47.1667;10.1667
9343;"Zweinitz";46.8667;14.2333
4180;"Zwettl an der Rodl";48.4667;14.2667
2063;"Zwingendorf";48.7;16.2333
4020;"Linz";48.3064;14.2861
4021;"Linz";48.3064;14.2861
4022;"Linz";48.3064;14.2861
4023;"Linz";48.3064;14.2861
4024;"Linz";48.3064;14.2861
4025;"Linz";48.3064;14.2861
4026;"Linz";48.3064;14.2861
4027;"Linz";48.3064;14.2861
4028;"Linz";48.3064;14.2861
4029;"Linz";48.3064;14.2861
4030;"Linz";48.3064;14.2861
4031;"Linz";48.3064;14.2861
4032;"Linz";48.3064;14.2861
4033;"Linz";48.3064;14.2861
4034;"Linz";48.3064;14.2861
4035;"Linz";48.3064;14.2861
4036;"Linz";48.3064;14.2861
4037;"Linz";48.3064;14.2861
4038;"Linz";48.3064;14.2861
4039;"Linz";48.3064;14.2861
4040;"Linz";48.3064;14.2861
4041;"Linz";48.3064;14.2861
4042;"Linz";48.3064;14.2861
4043;"Linz";48.3064;14.2861
4044;"Linz";48.3064;14.2861
4045;"Linz";48.3064;14.2861
4046;"Linz";48.3064;14.2861
5733;"Bramberg am Wildkogel";47.2802;12.3598
5733;"Bramberg am Wildkogel";47.2753;12.3452
5733;"Bramberg am Wildkogel";47.2821;12.381
5733;"Bramberg am Wildkogel";47.2548;12.3241
5733;"Bramberg am Wildkogel";47.2749;12.2106
5733;"Bramberg am Wildkogel";47.2899;12.3624
5733;"Bramberg am Wildkogel";47.2508;12.3209
5733;"Bramberg am Wildkogel";47.2881;12.3974
5733;"Bramberg am Wildkogel";47.2701;12.3587
5733;"Bramberg am Wildkogel";47.2571;12.3267
5090;"Lofer";47.5833;12.6833
